ORBCOMM FM24 [-]        
1 25478U 98053D   23235.07682568  .00001260  00000+0  49185-3 0  9996
2 25478  45.0084 168.2752 0000737 323.0069  37.0727 14.34558131302253
ORBCOMM FM25 [-]        
1 25479U 98053E   23234.27415259  .00001353  00000+0  52456-3 0  9997
2 25479  45.0077 170.2911 0001921 176.4743 183.6118 14.34547162302154
ORBCOMM FM26 [-]        
1 25480U 98053F   23235.16942513  .00001007  00000+0  40637-3 0  9990
2 25480  45.0073 159.2529 0004524 201.3342 158.7317 14.34154235302338
ORBCOMM FM27 [+]        
1 25481U 98053G   23235.23280427  .00001313  00000+0  51093-3 0  9996
2 25481  45.0061 166.0228 0002298 323.5765  36.4925 14.34517610302269
ORBCOMM FM28 [-]        
1 25482U 98053H   23235.09699453  .00001059  00000+0  41751-3 0  9991
2 25482  45.0067 106.0797 0002915 218.7868 141.2770 14.35031958303032
ORBCOMM FM30 [-]        
1 25980U 99065A   23235.29495579  .00000951  00000+0  38558-3 0  9994
2 25980  45.0340 343.9281 0006623 275.6659  84.3433 14.34278754239575
ORBCOMM FM31 [-]        
1 25981U 99065B   23234.14953449  .00000951  00000+0  38513-3 0  9994
2 25981  45.0254 343.2403 0003508 280.9371  79.1081 14.34313673239401
ORBCOMM FM32 [+]        
1 25982U 99065C   23234.14910334  .00000947  00000+0  39185-3 0  9992
2 25982  45.0183 355.1070 0005285 294.7672  65.2624 14.33261057239222
